business_name,telephone,email,category,website,street,locality,region,zipcode
"The Creative Mobility Group, LLC",(800) 539-7237,info@creativemobilitygroup.com,"Scooters Mobility Aid Dealers,Wheelchair Lifts & Ramps,Medical Equipment & Supplies",http://www.creativemobilitygroup.com,32217 Stephenson Hwy,Madison Heights,MI,48071
Ces Limited,(313) 887-0832,,"Computer Software Publishers & Developers,Computer Software & Services",https://www.cesltd.com,100 W Kirby St,Detroit,MI,48202
Global Computer Architect Inc,(813) 977-2800,,Data Processing Service,,13099 N Telecom Pkwy,Temple Terrace,FL,33637
Detroit Security Guards - CLOSED,(888) 407-6374,,Security Guard & Patrol Service,http://www.detroitsecurityconcepts.com,,Detroit,MI,48202
Ok 2 Playy - CLOSED,(313) 345-5867,,Video Games,,16944 Wildemere St,Detroit,MI,48221
Above Standard Janitorial Services,(313) 331-3077,,Janitorial Service,,590 N Eastlawn Ct,Detroit,MI,48215
Gayanga Co.,(855) 688-3366,,Construction Engineers,https://www.gayangaco.com,1420 Washington Blvd,Detroit,MI,48226
Gayanga Co.,(855) 688-3366,,Construction Engineers,https://www.gayangaco.com,1420 Washington Blvd,Detroit,MI,48226
White Construction,(313) 872-6700,white@whitecon.com,General Contractors,http://www.whitecon.com,1120 W Baltimore St,Detroit,MI,48202
Electric Motor & Contracting Co,(313) 871-3775,info@emc-co.com,"Electric Motors,Electric Equipment & Supplies-Wholesale & Manufacturers,Electric Equipment Repair & Service",http://emc-co.com,1133 W Baltimore St,Detroit,MI,48202
Edward Jones - Financial Advisor:  Nicholas J Clements,(734) 288-8963,,"Investment Advisory Service,Financial Services,Annuities & Retirement Insurance Plans",http://api.citygridmedia.com/content/places/v2/click?q=urVBa6moXC5S9VPyC16BYBn_NxLXMVobS_8vbcyI69_gxb4CfBJy9OKohTker_VRQUs_rkabzY8Aw-E7wg8PzxGIRE6Qeb1zffG2kRjt9wW32cq9uCECkL8wpv5bmgpnwBded-Q33nR8RJKett5oUkVaccSrvGLCfFqNOW962sfMwCiYeEhhDxsbZW05IUu76odpVHez_dZw1Py1clj1DbjILfwj6v5HJdrEKdMJpF6sOcDBYaVhnS_5GNrwTBxk1uAZT432717zhXdppVxu0JHU2VCfqptZL1CexTXBHbyaEVLs6KhEapePfElbzWPbb6WzO5_WCwup-fbJ3wSYKKhu8YdiWu0RiexvHf9dt4VtlGMiNSSeC2NvJYd9F0yrLSuhq6w-UkmhQpwpzn2bRpQXJ1a67AVaKs1Zsd6iKXbkoWmrZPJntJJ3oxIvHJMF&reference_id=0&publisher=yellowpages&placement=ypwebsitesrpr&action_target=listing_website,4061 S Canton Center Rd,Canton,MI,48188
Hamilton Fuel Stop Inc,(313) 883-6145,,Oils-Fuel-Wholesale & Manufacturers,,12803 Hamilton Ave,Highland Park,MI,48203
"360 Auto Repair, Oil, & Wash, LLC",(313) 836-1381,,"Auto Repair & Service,Window Tinting,Auto Oil & Lube",,13915 Grand River Ave,Detroit,MI,48227
"360 Auto Repair, Oil, & Wash, LLC",(313) 836-1381,,"Auto Repair & Service,Window Tinting,Auto Oil & Lube",,13915 Grand River Ave,Detroit,MI,48227
Ascension Michigan Physical Therapy-Macomb Recreation Center,(586) 868-9040,,,https://healthcare.ascension.org/Locations/Michigan/Macomb-St-John-Shelby-Physical-Therapy,17900 23 Mile Rd,Macomb,MI,48044
Universal Auto Electric Co,(313) 835-2477,team@latofonts.com,,http://www.universalautoelectric.com,14936 Joy Rd,Detroit,MI,48228
Border City,(313) 782-4611,,Cargo & Freight Containers,http://bordercityusa.com,8350 Saint Aubin St,Detroit,MI,48211
Jewell & Jewell Attorneys - CLOSED,,,"Attorneys,Criminal Law Attorneys,Family Law Attorneys",,21500 Harper Ave,Saint Clair Shores,MI,48080
Jewell & Jewell Attorneys - CLOSED,,,"Attorneys,Criminal Law Attorneys,Family Law Attorneys",,21500 Harper Ave,Saint Clair Shores,MI,48080
Kevin Richard Tomasko Jr.,(313) 916-2600,,,,2799 W Grand Blvd,Detroit,MI,48202
"One Stop Property Maintenance, LLC",(313) 957-0070,info@ospmain.com,Property Maintenance,http://www.ospmain.com,,,,
Franks Creative Catering & Eve,(313) 262-7667,,"Caterers,Bartending Service",,625 Griswold St,Detroit,MI,48226
Clark Graphics,(586) 772-4900,,"Graphic Designers,Printing Services,Printing Services-Commercial",http://www.clarkgraphic.com,21914 Schmeman Ave,Warren,MI,48089
The Coffee Shop and Deli,(313) 638-1474,,Coffee & Tea,,3044 W Grand Blvd,Detroit,MI,48202
Project Compassion,(313) 897-7480,linpin@linpin.com,"Social Service Organizations,Community Organizations,Religious Organizations",http://www.projectcompassion.net,3307 29th St,Detroit,MI,48210
Dugoods Apparel,(313) 736-3131,,"Women's Clothing Wholesalers & Manufacturers,Men's Clothing Wholesalers & Manufacturers",,15442 Log Cabin St,Detroit,MI,48238
Green Living Science,(313) 871-4000,,Recycling Centers,http://www.greenlivingscience.org,1331 Holden St,Detroit,MI,48202
Deadline Detroit,(313) 964-9222,,,,615 Griswold St,Detroit,MI,48226
Deadline Detroit,(313) 964-9222,,,,615 Griswold St,Detroit,MI,48226
Shhs,(248) 481-9417,,Home Health Services,,2550 S Telegraph Rd,Bloomfield Hills,MI,48302
The Peacock Room,(313) 559-5500,,"Tourist Information & Attractions,Places Of Interest",,15 E Kirby St,Detroit,MI,48202
The Peacock Room,(313) 559-5500,,"Tourist Information & Attractions,Places Of Interest",,15 E Kirby St,Detroit,MI,48202
Virtual Right Hands,(248) 842-4848,wixofday@wix.com,,http://www.virtualrighthands.com,Po Box 430990,Pontiac,MI,48343
Virtual Right Hands,(248) 842-4848,wixofday@wix.com,,http://www.virtualrighthands.com,Po Box 430990,Pontiac,MI,48343
Wasabi Korean and Japanese Cuisine,(313) 638-1272,,"Japanese Restaurants,Korean Restaurants,Sushi Bars",http://wasabidetroit.com,15 E Kirby St,Detroit,MI,48202
Tellis & Company,(313) 873-3812,,"Financial Planning Consultants,Accountants-Certified Public,Accounting Services",http://www.tellisandcompanycpas.com,15 E Kirby St Ste 106,Detroit,MI,48202
Juvenile Law Group PLLC,(313) 833-6644,,"Juvenile Law Attorneys,Attorneys",http://www.juvenilelawdetroit.com/about.html,1025 E Forest Ave,Detroit,MI,48207
Kolozsvary Andrew J,(313) 568-5406,,,https://www.dykema.com/professionals-andrew_kolozsvary.html,400 Renaissance Ctr,Detroit,MI,48243
"Wood, Douglas A, DO",(313) 262-6823,,Physicians & Surgeons,,3011 W Grand Blvd,Detroit,MI,48202
Horizon Transport Inc,(313) 262-7691,,Trucking-Motor Freight,,7991 Hartwick,Detroit,MI,48211
Nickovich John,(313) 928-0220,,"Laundry Equipment,Dry Cleaners & Laundries",,4204 Oakwood Blvd,Melvindale,MI,48122
The Scarab Club,(313) 831-1250,,"Art Galleries, Dealers & Consultants,Places Of Interest,Tourist Information & Attractions",http://www.scarabclub.org,217 Farnsworth St,Detroit,MI,48202
"Basant K. Sharma, MD",(313) 916-8641,,"Physicians & Surgeons,Physicians & Surgeons, Pulmonary Diseases,Physicians & Surgeons, Emergency Medicine",http://www.henryford.com,2799 W Grand Blvd,Detroit,MI,48202
Detroit Spirit Industrial Products Inc,(313) 873-1643,,Chemicals-Wholesale & Manufacturers,,5255 Tillman St,Detroit,MI,48208
Friars Kitchen & Bakery,(586) 573-6300,,"American Restaurants,Take Out Restaurants,Bakeries",http://friarskitchen.com/cgi-sys/suspendedpage.cgi,3855 E 12 Mile Rd,Warren,MI,48092
Tim Horton's,(313) 664-1409,,"Coffee & Espresso Restaurants,Restaurants,Breakfast, Brunch & Lunch Restaurants",http://www.timhortons.com,465 W Milwaukee St,Detroit,MI,48202
Tim Horton's,(313) 664-1409,,"Coffee & Espresso Restaurants,Restaurants,Breakfast, Brunch & Lunch Restaurants",http://www.timhortons.com,465 W Milwaukee St,Detroit,MI,48202
Enterprise Uniform Co,(313) 871-4667,,"Uniforms,Clothing Stores,Church Supplies & Services",,2862 E Grand Blvd,Detroit,MI,48202
Abramson Resources,(313) 462-4155,,,,2870 E Grand Blvd,Detroit,MI,48202
Abramson Resources,(313) 462-4155,,,,2870 E Grand Blvd,Detroit,MI,48202
Zt Grill,(313) 285-8116,,"Bar & Grills,Restaurants",,2894 W Grand Blvd,Detroit,MI,48202
Zt Grill,(313) 285-8116,,"Bar & Grills,Restaurants",,2894 W Grand Blvd,Detroit,MI,48202
Flaming Embers,(313) 962-3466,,Restaurants,,1570 Woodward Ave,Detroit,MI,48226
Clinical Research Services Inc,(313) 387-1150,,Research & Development Labs,,8924 Wormer,Redford,MI,48239
"3 J Group, Inc",(734) 522-9390,,,https://www.comfortkeepers.com,30120 Ford Rd,Garden City,MI,48135
"3 J Group, Inc",(734) 522-9390,,,https://www.comfortkeepers.com,30120 Ford Rd,Garden City,MI,48135
Gershonowicz Brothers,(855) 725-3628,,,https://rebuild.group,2921 E Grand Blvd,Detroit,MI,48202
New Center North Management Co,(313) 492-4949,,Management Consultants,,31 Hazelwood St,Detroit,MI,48202
New Center North Management Co,(313) 492-4949,,Management Consultants,,31 Hazelwood St,Detroit,MI,48202
"Hi-Tech Auto Collision, Inc.",(313) 491-2222,,Automobile Body Repairing & Painting,,10230 Livernois Ave,Detroit,MI,48204
JB Autotech,(734) 838-3963,,Auto Repair & Service,http://jbautotech.com,32235 Industrial Rd,Livonia,MI,48150
Rock Cf Foundation,(734) 671-8310,,Research Services,,2995 Bridge St,Trenton,MI,48183
Griswold Realty Advisors,(313) 784-9142,,,,2990 W Grand Blvd,Detroit,MI,48202
Detroit Future City Home Base,(313) 259-4407,info@detroitfuturecity.com,,https://detroitfuturecity.com,2990 W Grand Blvd,Detroit,MI,48202
Haste Freight Group,(313) 379-5200,,Trucking-Motor Freight,,2990 W Grand Blvd,Detroit,MI,48202
Haste Freight Group,(313) 379-5200,,Trucking-Motor Freight,,2990 W Grand Blvd,Detroit,MI,48202
Great Lakes Radio,(313) 871-1440,,Radio Stations & Broadcast Companies,,2994 E Grand Blvd,Detroit,MI,48202
Great Lakes Radio,(313) 871-1440,,Radio Stations & Broadcast Companies,,2994 E Grand Blvd,Detroit,MI,48202
Black Family Development,(313) 758-0157,,"Marriage, Family, Child & Individual Counselors,Social Service Organizations",http://www.blackfamilydevelopment.org,2995 E Grand Blvd,Detroit,MI,48202
"Matthews, O L, MD",(313) 382-0505,,,,7445 Allen Rd,Allen Park,MI,48101
City Living Detroit,(313) 242-7800,info@citylivingdetroit.com,Real Estate Agents,http://www.citylivingdetroit.com,3011 W Grand Blvd,Detroit,MI,48202
Elision Production and Recording Studio,(313) 207-7694,,"Audio-Visual Production Services,Recording Service-Sound & Video,Music Instruction-Vocal",,1190 Seward St,Detroit,MI,48202
"John A White Jr., DDS",(313) 921-4166,,Dentists,,7601 Mack Ave,Detroit,MI,48214
"Dr. Eric W Ayers, MD",(313) 745-4525,,"Physicians & Surgeons,Physicians & Surgeons, Pediatrics",http://wsupgdocs.org,50 E Canfield St,Detroit,MI,48201
V M X International,(313) 875-9459,info@vmxi.com,Environmental Engineers,http://www.vmxi.com,3011 W Grand Blvd Ste 2401,Detroit,MI,48202
Algis V Barauskas Dds,(313) 871-1044,,,,311 W Grand Blvd,Detroit,MI,48216
Third Baptist Church,(313) 874-4133,,"Baptist Churches,Churches & Places of Worship",,582 E Ferry St,Detroit,MI,48202
"Alo, Mohammed S, DO",(734) 282-2002,,"Physicians & Surgeons, Surgery-General,Physicians & Surgeons",,15450 Northline Rd,Southgate,MI,48195
Russell's Pharmacy,(313) 875-5384,username@example.com,Pharmacies,http://healthmart.com,3011 W Grand Blvd Ste 107,Detroit,MI,48202
Third Baptist Church,(313) 874-4133,,"Baptist Churches,Churches & Places of Worship",,582 E Ferry St,Detroit,MI,48202
Albert Kahn Associates,(313) 202-7000,,"Architects,General Contractors",,7430 2nd Ave,Detroit,MI,48202
Albert Kahn Associates,(313) 202-7000,,"Architects,General Contractors",,7430 2nd Ave,Detroit,MI,48202
Yamasaki Inc,(313) 462-4321,gospelagainstaids@gmail.com,AIDS Information & Services,http://www.gospelaa.org,3011 W Grand Blvd,Detroit,MI,48202
Allen Floyd E,(313) 871-5500,,Attorneys,http://www.alglawpc.com,3011 W Grand Blvd Ste 2500,Detroit,MI,48202
Butler Graphics,(313) 875-9670,butlergraphics@bgmedia.com,Graphic Designers,http://www.bgmedia.com,3011 W Grand Blvd Ste 2250,Detroit,MI,48202
"Smith, Joshua S, MD",(313) 416-6200,,Physicians & Surgeons,,4669 E 8 Mile Rd,Warren,MI,48091
Compliance Office Environmental,(313) 285-8401,,Environmental & Ecological Consultants,http://ecomain.com,3011 W Grand Blvd Ste 420,Detroit,MI,48202
motu management group inc,(313) 409-8374,,Management Consultants,,29777 Telegraph Rd Ste 2475,southfield,MI,48034
Brown Counseling,(313) 285-8097,info@browncounseling.com,,http://www.browncounseling.com,15 E Kirby St,Detroit,MI,48202
Bruce Donigan Dds,(313) 871-1100,office@drdonigan.com,,http://www.drdonigan.com,862 W Fisher Fwy,Detroit,MI,48201
Nco Group Inc,(313) 566-0573,,Collection Agencies,,2711 E Jefferson Ave,Detroit,MI,48207
Platform,(313) 446-8799,info@theplatform.city,Real Estate Agents,http://www.theplatform.city,7310 Woodward Ave,Detroit,MI,48202
Dr. Gabriel Williams DDS,(313) 873-7474,,"Dentists,Orthodontists",https://www.todaysdetroitdental.com,3011 W Grand Blvd,Detroit,MI,48202
United Way Community Service,(800) 552-1183,,Social Service Organizations,,6060 Woodward Ave,Detroit,MI,48202
Brodie D A Ph.D. Pc,(313) 871-1450,,,http://brogan.com,3011 W Grand Blvd,Detroit,MI,48202
The Fashions Place,(313) 874-5531,admin@newcenterplace.com,Women's Clothing,http://www.newcenterplace.com,3011 W Grand Blvd,Detroit,MI,48202
"Dr. Susan Reeder, MD",(313) 582-2769,,Physicians & Surgeons,,15101 Ford Rd,Dearborn,MI,48126
Russell's Pharmacy,(313) 875-5384,username@example.com,Pharmacies,http://healthmart.com,3011 W Grand Blvd Ste 107,Detroit,MI,48202
Detroit Central City Community Mental Health Inc,(313) 831-3160,,"Physicians & Surgeons, Psychiatry,Physicians & Surgeons,Mental Health Services",http://www.dcccmh.org,10 Peterboro St,Detroit,MI,48201
Butler Graphics,(313) 875-9670,butlergraphics@bgmedia.com,Graphic Designers,http://www.bgmedia.com,3011 W Grand Blvd Ste 2250,Detroit,MI,48202
"Smith, Joshua S, MD",(313) 416-6200,,Physicians & Surgeons,,4669 E 8 Mile Rd,Warren,MI,48091
"Dr. Eric W Ayers, MD",(313) 745-4525,,"Physicians & Surgeons,Physicians & Surgeons, Pediatrics",http://wsupgdocs.org,50 E Canfield St,Detroit,MI,48201
"Somat Engineering, Inc",(313) 963-2721,info@somateng.com,,http://www.somateng.com,3031 W Grand Blvd Suite 228,Detroit,MI,48202
A Inc,(248) 546-6053,,,,1258 Brown Rd,Auburn Hills,MI,48326
Accounting Aid Society,(313) 556-1920,info@accountingaidsociety.org,Accounting Services,http://accountingaidsociety.org,7700 2nd Ave,Detroit,MI,48202
Becharas Brothers Coffee Co,(313) 869-4700,,"Coffee & Tea,Coffee Roasting & Handling Equipment,Coffee & Tea-Wholesale & Manufacturers",http://www.becharas.com,14501 Hamilton Ave,Highland Park,MI,48203
A & A Deli,(313) 964-6500,,"Delicatessens,Restaurants",,3031 W Grand Blvd,Detroit,MI,48202
Solid Rock Management Co,(313) 873-7625,,"Management Consultants,Business Coaches & Consultants,Business Management",http://www.solidrock-management.com,3031 W Grand Blvd Ste 524,Detroit,MI,48202
New Center Council Inc,(313) 870-9211,,"Social Service Organizations,Community Organizations",http://newcenter.com,2990 W Grand Blvd,Detroit,MI,48202
"Thompson Sr, Anthony E",(313) 429-1185,,Social Workers,https://www.familytreenow.com,12625 W Outer Dr,Detroit,MI,48223
Urban Health Resource,(313) 664-0100,,Home Health Services,http://www.uhr-uho.org,3031 W Grand Blvd,Detroit,MI,48202
Central Care Management Organization,(313) 875-2092,,Professional Organizations,https://www.ccmo.org,3031 W Grand Blvd Ste 370,Detroit,MI,48202
"Stuart E. Kirschenbaum, DPM",(313) 894-5100,,"Physicians & Surgeons, Podiatrists",,3031 W Grand Blvd,Detroit,MI,48202
Esper Aiello Law Group,(313) 964-4900,,"Product Liability Law Attorneys,Attorneys",https://www.aiellolawgroup.com,3031 W Grand Blvd Ste 440,Detroit,MI,48202
Long Insurance Services,(313) 873-0300,tiles_homepage_apron-relief_280@2x.jpg,"Insurance,Auto Insurance",http://www.progressive.com,3031 W Grand Blvd Ste 529,Detroit,MI,48202
Michigan Roundtable For Diversity & Inclusion,(313) 870-1500,wixofday@wix.com,Community Organizations,https://www.miroundtable.org,3031 W Grand Blvd Ste 525,Detroit,MI,48202
Huffman Eric D Ins Agcy Inc,(313) 875-3172,,Insurance,http://statefarm.com,3031 W Grand Blvd,Detroit,MI,48202
Wayne County Medical Society,(313) 874-1360,,"Acoustical Contractors,General Contractors",,"3031 W. Grand Blvd., Suite 645",Detroit,MI,48202
Travelers' Aid,(313) 962-6740,,Social Service Organizations,https://www.travelersaid.org,3031 W Grand Blvd,Detroit,MI,48202
Detroit Wayne County Port Authority,(313) 259-5091,,Port Authorities,http://www.portdetroit.com,130 Atwater St,Detroit,MI,48226
Housing Fund - Detroit,(313) 444-9540,,Real Estate Developers,,12300 Gratiot Ave,Detroit,MI,48205
Here's The Scoop,(313) 292-9728,,Ice Cream & Frozen Desserts,,8814 Pelham Rd,Taylor,MI,48180
Weldon Enterprise Global IT,(313) 687-4990,info@weglobalit.com,Computer Software & Services,http://weglobalit.com,3031 W Grand Blvd Ste 695,Detroit,MI,48202
New Detroit Inc,(313) 664-2000,,,https://www.newdetroit.org,3031 W Grand Blvd,Detroit,MI,48202
Travelers' Aid,(313) 962-6740,,Social Service Organizations,https://www.travelersaid.org,3031 W Grand Blvd,Detroit,MI,48202
Detroit- Windsor Dance Academy,(313) 872-7200,,"Dancing Instruction,Dance Companies,Dance Halls",,3031 W Grand Blvd Ste 350,Detroit,MI,48202
Coup Inc,(248) 495-0283,,,http://coupinc.com,4070 3 Oaks Dr,Troy,MI,48098
Oakland Avenue Missionary Baptist Church,(313) 875-3880,,"Baptist Churches,Churches & Places of Worship",https://www.facebook.com/pages/oakland-avenue-missionary-baptist-church/121062037903893,309 Harper Ave,Detroit,MI,48202
Chris & Sammie Carwash,(313) 861-1549,,Car Wash,,20525 Ward St,Detroit,MI,48235
Metropolitan Detroit Area Hospital Services Inc,(313) 834-4330,,Information Bureaus & Services,,4645 Oakman Blvd,Detroit,MI,48204
King Cole Foods,(313) 872-0220,,Grocery Stores,http://kingcolefoods.com,40 Clairmount St,Detroit,MI,48202
General Linen & Uniform Service Co.,(313) 244-0748,info@general-linen.com,"Linen Supply Service,Linens,Uniform Supply Service",http://www.general-linen.com,411 Piquette St,Detroit,MI,48202
General Linen & Uniform Service Co.,(313) 244-0748,info@general-linen.com,"Linen Supply Service,Linens,Uniform Supply Service",http://www.general-linen.com,411 Piquette St,Detroit,MI,48202
Z's Villa,(313) 874-2680,sofianni_liana@yahoo.com,"American Restaurants,Bars,Night Clubs",http://www.zsvilladet.com,42 Piquette St,Detroit,MI,48202
Wealthy Leaf Inc,(313) 338-3098,,,,2870 E Grand Blvd,Detroit,MI,48202
Peel Property Management,(313) 230-0399,,"Property Maintenance,Housing Consultants & Referral Service,Rental Vacancy Listing Service",,5090 Audubon Rd,detroit,MI,48224
Bio-Magnetic Resonance Inc,(586) 445-4900,,"MRI (Magnetic Resonance Imaging),Medical Imaging Services",http://biomagmri.com,25100 Kelly Rd,Roseville,MI,48066
Kumon Math and Reading Center,(313) 873-7730,CV-Badge-Kumon-Home-Desktop@1x.png,"Tutoring,Educational Services,Educational Consultants",http://www.kumon.com,49 Virginia Park St,Detroit,MI,48202
Transportation Riders United,(313) 963-8872,info@DetroitTransit.org,Community Organizations,http://www.detroittransit.org,500 Griswold St Ste 1650,Detroit,MI,48226
Wayne State University,(313) 577-5134,MUG@LISTS.SDUSERS,"Library Research & Service,Libraries",http://muglibraries.org,5150 Anthony Wayne Dr # 3100,Detroit,MI,48202
Silver Lights Studio,(313) 556-4821,silverlightsphoto@gmail.com,"Photography & Videography,Portrait Photographers",http://www.silverlightsphoto.com,5127 Allen Rd,Allen Park,MI,48101
Kumon Math and Reading Center,(313) 873-7730,CV-Badge-Kumon-Home-Desktop@1x.png,"Tutoring,Educational Services,Educational Consultants",http://www.kumon.com,49 Virginia Park St,Detroit,MI,48202
Wayne State University,(313) 577-5134,MUG@LISTS.SDUSERS,"Library Research & Service,Libraries",http://muglibraries.org,5150 Anthony Wayne Dr # 3100,Detroit,MI,48202
Lake Star Construction Services Inc,(248) 636-7480,,Construction Consultants,,17800 Northland Park Ct Ste 108,Southfield,MI,48075
Bright Horizons Family Solutions,(313) 871-2100,,"Educational Services,Child Care,Preschools & Kindergarten",http://www.brighthorizons.com,1110 Seward St,Detroit,MI,48202
Cws Securities,(313) 551-4864,,,,70 Gale Blvd,Melvindale,MI,48122
Elm Analytics,(248) 660-9356,info@elmanalytics.com,Data Communications Equipment & Systems,http://www.elmanalytics.com,280 Mill St Ste A,Rochester,MI,48307
Hatch Detroit,(313) 465-7640,Info@HatchDetroit.com,Business & Trade Organizations,http://hatchdetroit.com,645 Griswold St,Detroit,MI,48226
Featherstone Moments,(313) 465-5618,,"Telemarketing Services,Marketing Programs & Services,Marketing Consultants",,4263 Cass Ave,Detroit,MI,48201
Shebley Group,(312) 945-8811,IMG_4520_370x230@2x.JPG,Custom Made Men's Suits,https://shopqbyqs.com,6001 Cass Ave # 124,Detroit,MI,48202
Community Development Advocates Of Detroit,(313) 964-4910,jennifer@marijuanapropagation.com,Community Organizations,https://www.marijuanapropagation.com/store/p2/cannabis-cultivation-operating-plan-sop.html,2727 2nd Ave Ste 303,Detroit,MI,48201
Metropolitan Elks Lodge 962,(313) 868-7829,,Clubs,,50 Manchester Pkwy,Highland Park,MI,48203
Detroit Experience Factory,(313) 962-4590,HELLO@DETROITEXPERIENCEFACTORY.ORG,Tourist Information & Attractions,http://www.detroitexperiencefactory.org,440 Burroughs St,Detroit,MI,48202
Data Ic,(313) 887-1297,info@icdatacom.com,Data Communications Equipment & Systems,http://www.icdatacom.com,440 Burroughs St,Detroit,MI,48202
Bio-Magnetic Resonance Inc,(586) 445-4900,,"MRI (Magnetic Resonance Imaging),Medical Imaging Services",http://biomagmri.com,25100 Kelly Rd,Roseville,MI,48066
American Institute Architechts,(313) 965-4100,aiami@aiami.com,"Architects,Architectural Engineers,Building Construction Consultants",http://aiami.com,4219 Woodward Ave,Detroit,MI,48201
Healthy Ways Nutrition Counseling,(248) 855-4558,,"Physicians & Surgeons, Nutrition",http://www.gailposner.com,6960 Orchard Lake Rd Ste 310,West Bloomfield,MI,48322
Shebley Group,(312) 945-8811,QueShebley_logo_ShebCroc_inner_WEB_110x@2x.jpg,Custom Made Men's Suits,https://shopqbyqs.com,6001 Cass Ave # 124,Detroit,MI,48202
Individual Benefits Co,(313) 972-1400,,,,45 E Milwaukee St,Detroit,MI,48202
Nextek Power Systems Inc,(313) 887-1321,info@nextekpower.com,"Electronic Equipment & Supplies-Wholesale & Manufacturers,Lighting Fixtures-Wholesale & Manufacturers,Electric Equipment-Testing",http://www.nextekpower.com,461 Burroughs St,Detroit,MI,48202
Nextenergy,(313) 831-0548,,,http://nextenergy.org,445 Burroughs St,Detroit,MI,48202
Model T Auto Heritage Complex,(313) 872-8759,,Museums,,461 Piquette St,Detroit,MI,48202
Model T Auto Heritage Complex,(313) 872-8759,,Museums,,461 Piquette St,Detroit,MI,48202
Green Roderick Attorney,(313) 965-5770,,"Criminal Law Attorneys,Attorneys,Divorce Attorneys",,615 Griswold St,Detroit,MI,48226
Michigan Math and Science,(248) 808-6914,,Tutoring,http://mmsaonline.org,99 E Woodward Heights Blvd,Hazel Park,MI,48030
Clearesult Consulting Inc - CLOSED,,,Business Coaches & Consultants,,3031 W Grand Blvd,Detroit,MI,48202
Victoria's Secret,(313) 271-2480,,"Lingerie,Cosmetics & Perfumes,Women's Clothing",http://www.victoriassecret.com,18900 Michigan Ave,Dearborn,MI,48126
Bethel-Detroit AME,(313) 831-8810,14370afcdc17429f9e418d5ffbd0334a@sentry.wixpress.com,"African Methodist Episcopal Churches,Churches & Places of Worship",https://www.bethelamechurchdetroit.org,5050 Saint Antoine St,Detroit,MI,48202
Detroit Chiropractors Accept Blue Blue Shield,(313) 403-2237,,,,2761 E Jefferson Ave,Detroit,MI,48207
Shield's Restaurant Bar Pizzeria,(313) 262-6087,,"Pizza,Bars,Italian Restaurants",https://www.pizzarestaurantdetroit.com,5057 Woodward Ave,Detroit,MI,48202
Savant,(313) 285-9294,,Restaurants,http://www.savantmidtown.com/food,51 W Forest Ave,Detroit,MI,48201
Washington F C & Son,(313) 872-6500,,Printers-Equipment & Supplies,,510 Harper Ave,Detroit,MI,48202
Washington F C & Son,(313) 872-6500,,Printers-Equipment & Supplies,,510 Harper Ave,Detroit,MI,48202
P & B Investments - CLOSED,,,"Financial Planning Consultants,Investments",,675 Seward St,Detroit,MI,48202
Red Carpet Keim - CLOSED,,,Carpet & Rug Dealers,,830 Orchard St,Ferndale,MI,48220
Winners Circle Christian International Church,(844) 633-4214,,,,26520 Berg Rd Apt 609,Southfield,MI,48033
Detroit Institute of Arts,(313) 833-7900,,"Museums,Places Of Interest,Tourist Information & Attractions",http://www.dia.org,5200 Woodward Ave,Detroit,MI,48202
Insideout Literary Arts Project Inc,(313) 557-4601,,Arts Organizations & Information,http://insideoutdetroit.org,5143 Cass Ave,Detroit,MI,48202
Metropolitan Church Of God,(313) 273-5580,,"Church of God,Churches & Places of Worship",http://www.metropolitancog.org,13400 Schaefer Hwy,Detroit,MI,48227
ALKALINE H2O LLC,(313) 736-1040,danwilliams3@alkalineh2ollc.com,"Water Supply Systems,Water Coolers, Fountains & Filters,Water Companies-Bottled, Bulk, Etc",http://www.alkalineh2ollc.com,5226 St Antoine St,Detroit,MI,48202
M & M Holdings Unlimited,(586) 439-1090,,"Sports & Entertainment Ticket Sales,Event Ticket Sales,Travel Agencies",,34400 Utica Rd,Fraser,MI,48026
H B Enterprises,(313) 365-5733,,,,2121 McLean St,Hamtramck,MI,48212
"Pinnacle Enterprise Group, LLC",(248) 706-1740,,Advertising Agencies,http://pinnacleeg.com,6234 Cromwell Rd,West Bloomfield,MI,48322
"Pinnacle Enterprise Group, LLC",(248) 706-1740,,Advertising Agencies,http://pinnacleeg.com,6234 Cromwell Rd,West Bloomfield,MI,48322
Detroit Historical Society,(313) 885-1967,,Cultural Centers,,3 Stratford Pl,Grosse Pointe,MI,48230
Detroit Historical Society,(313) 885-1967,,Cultural Centers,,3 Stratford Pl,Grosse Pointe,MI,48230
Vi Et Animo,(313) 285-8849,,,,5440 Cass Ave,Detroit,MI,48202
Shear Vanity,(313) 832-5583,,Beauty Salons,http://www.shearvanityllc.com,5440 Cass Ave,Detroit,MI,48202
"Best Practices Consulting Services, LLC",(313) 757-1695,,"Business Coaches & Consultants,Management Consultants,Marketing Consultants",http://yourpracticescoach.com,2727 2nd Ave Ste 157,Detroit,MI,48201
Uniquely Different Weddings,(313) 492-2210,,Wedding Planning & Consultants,http://uniqdiffwedd.com,26245 Fordson Hwy,Redford,MI,48239
"Bowers Adult Foster Care, Inc.",(313) 363-7018,,"Developmentally Disabled & Special Needs Services & Products,Foster Care Agencies,Mental Health Services",,556 Mount Vernon St,Detroit,MI,48202
Barton Fred Co,(313) 872-9440,rayjohnson@fredbartonco.com,"Plumbers,Heating Contractors & Specialties,Furnaces-Heating",http://fredbartonco.com,565 E Milwaukee St,Detroit,MI,48202
Mike Anthony Forensic Polygraph and Consulting Services LLC,(313) 400-2124,manthonypolygraph@att.net,Lie Detection Service,http://www.mikeanthonypolygraph.com,PO Box 36641,Grosse Pointe,MI,48236
Tony V's Tavern,(313) 833-5595,,"Pizza,Bars,American Restaurants",http://www.tonyvstavern.com,5756 Cass Ave,Detroit,MI,48202
Tony V's Tavern,(313) 833-5595,,"Pizza,Bars,American Restaurants",http://www.tonyvstavern.com,5756 Cass Ave,Detroit,MI,48202
Industrial Sewing and Innovation Center,(313) 870-1898,information@isaic.org,Sewing Contractors,https://www.isaic.org,5800 Cass Ave,Detroit,MI,48202
New Mt Moriah Baptist Church,(313) 869-0190,,"Baptist Churches,Churches & Places of Worship",http://newmtmoriahbaptistchurch.com,13100 Woodward Ave,Highland Park,MI,48203
New Mt Moriah Baptist Church,(313) 869-0190,,"Baptist Churches,Churches & Places of Worship",http://newmtmoriahbaptistchurch.com,13100 Woodward Ave,Highland Park,MI,48203
Jep Homes,(313) 307-7861,,Home Builders,,16207 Wyoming St,Detroit,MI,48221
Jep Homes,(313) 307-7861,,Home Builders,,16207 Wyoming St,Detroit,MI,48221
John Perrin PC,(586) 477-0061,,"General Practice Attorneys,Attorneys,Criminal Law Attorneys",http://www.theperrinlawfirm.com,319 Northbound Gratiot Ave,Mount Clemens,MI,48043
"Thomas, Dawn",(248) 593-3175,,Physical Therapists,,261 Mack Ave,Detroit,MI,48201
London Luggage Shop,(313) 831-7200,,Shopping Centers & Malls,http://www.londonluggage.com,5955 Woodward Ave,Detroit,MI,48202
Woodward Fuel & More,(313) 869-8889,,"Gas Stations,Convenience Stores,Car Wash",http://www.marathon.com,15903 Woodward Ave,Highland Park,MI,48203
Subway,(313) 577-5783,,"Fast Food Restaurants,Sandwich Shops,Restaurants",https://restaurants.subway.com/united-states/mi/detroit/655-west-kirby?utm_source=yext-other&utm_medium=local&utm_term=acq&utm_content=60291&utm_campaign=evergreen-2020&y_source=1_MTQ5MDEzMTktNTUzLWxvY2F0aW9uLndlYnNpdGU%3D,655 W Kirby St,Detroit,MI,48202
Detroit Police Department Precinct 3,(313) 596-5300,,"Police Departments,Government Offices,Law Enforcement Agencies-Government",http://www.detroitmi.gov/Police,2875 W Grand Blvd,Detroit,MI,48202
Greenfield Noodle,(313) 873-2212,,Business Brokers,,600 Custer St,Detroit,MI,48202
Greenfield Noodle,(313) 873-2212,,Business Brokers,,600 Custer St,Detroit,MI,48202
Shebley Group,(312) 945-8811,QueShebley_logo_ShebCroc_inner_WEB_110x@2x.jpg,Custom Made Men's Suits,https://shopqbyqs.com,6001 Cass Ave # 124,Detroit,MI,48202
Matthews Endeavors,(313) 791-7321,,Auto Transmission,,7238 W Fort St,Detroit,MI,48209
Records Storage Delivery And Service,(313) 875-5446,,"Business Documents & Records-Storage & Management,Trucking,Movers & Full Service Storage",http://commercialmovingdeliverystorage.com,6045 John C Lodge Fwy,Detroit,MI,48202
Culturesource,(313) 831-1151,example@example.com,,http://www.culturesource.org,3434 Russell St,Detroit,MI,48207
Jonna Construction,(313) 800-5414,,"General Contractors,Building Construction Consultants,Building Contractors",https://www.jonnaconstruction.com,6200 2nd Ave,Detroit,MI,48202
Jonna Construction,(313) 800-5414,,"General Contractors,Building Construction Consultants,Building Contractors",https://www.jonnaconstruction.com,6200 2nd Ave,Detroit,MI,48202
Detroit Power Systems,(313) 871-8000,,"Electricians,Electric Contractors-Commercial & Industrial",,622 W Baltimore St,Detroit,MI,48202
Detroit Power Systems,(313) 871-8000,,"Electricians,Electric Contractors-Commercial & Industrial",,622 W Baltimore St,Detroit,MI,48202
"Jevitas Anthony, DPH",(313) 961-3200,,Social Workers,,2051 W Grand Blvd,Detroit,MI,48208
James Martin Chevrolet,(313) 875-0500,flags@2x.png,"Automobile Parts & Supplies,Used Car Dealers,Auto Repair & Service",http://www.jamesmartindetroit.com?cs:pro=yext,6250 Woodward Ave,Detroit,MI,48202
Brophy Engraving,(313) 871-2333,google-play-badge-60@2x-lr.png,"Graphic Designers,Printing Services",http://www.angieslist.com/companylist/us/mi/detroit/brophy-engraving-co-reviews-2619845.htm,626 Harper Ave,Detroit,MI,48202
Michigan Paper Die Inc,(313) 873-0404,,Printing Services,https://www.michiganpaperdie.com,632 Harper Ave,Detroit,MI,48202
Phantom Entertainment Group,(248) 817-8800,,"Clubs,Bars,Party & Event Planners",,25240 Lahser Rd,Southfield,MI,48033
The Mason Jar,(313) 651-9740,,,,4088 W Mcnichols Rd,Detroit,MI,48221
Elbow Lounge Inc,(313) 469-0208,,"Cocktail Lounges,Bar & Grills,Bars",,7310 Mack Ave,Detroit,MI,48214
Elbow Lounge Inc,(313) 469-0208,,"Cocktail Lounges,Bar & Grills,Bars",,7310 Mack Ave,Detroit,MI,48214
Anew Life Prosthetics & Orthotics,(313) 870-9610,,"Prosthetic Devices,Orthopedic Appliances,Medical Equipment & Supplies",http://www.anewlifepando.com,6438 Woodward Ave,Detroit,MI,48202
Anew Life Prosthetics & Orthotics,(313) 870-9610,,"Prosthetic Devices,Orthopedic Appliances,Medical Equipment & Supplies",http://www.anewlifepando.com,6438 Woodward Ave,Detroit,MI,48202
Cooking With Que,(313) 462-4184,info@cookingwithque.com,Caterers,https://cookingwithque.com,6529 Woodward Ave,Detroit,MI,48202
Cooking With Que,(313) 462-4184,info@cookingwithque.com,Caterers,https://cookingwithque.com,6529 Woodward Ave,Detroit,MI,48202
Detroit Nipple Works,(313) 872-6370,,Cutting & Slitting Service,http://www.detroitnippleworks.com,6530 Beaubien St,Detroit,MI,48202
Detroit Nipple Works,(313) 872-6370,,Cutting & Slitting Service,http://www.detroitnippleworks.com,6530 Beaubien St,Detroit,MI,48202
10 And 2 Driving Academy,(734) 718-7672,10and2academy@gmail.com,Driving Instruction,http://www.10and2academy.com,28345 Beck Rd Suite 212,Wixom,MI,48393
Clutch & Throttle,(313) 656-4325,harley-davidson-repair-detroit-mi_600x600@2x.JPG,Clutches,https://clutchandthrottle.co,6544 Beaubien St,Detroit,MI,48202
Affordable Signs,(313) 521-3272,Info@AffordableSigns.com,"Signs,Advertising Agencies,Advertising Specialties",http://affordablesigns.com,14900 Alma St,Detroit,MI,48205
Brite Ideas Tattoo Studio,(734) 485-8288,,Tattoos,https://briteideatattoo.wordpress.com,30 N Huron St,Ypsilanti,MI,48197
Legacy Home Care,(248) 559-9001,,Home Health Services,,17070 W 12 Mile Rd,Southfield,MI,48076
"Northern Lights Painting, Inc .",(248) 210-7009,,Painting Contractors,,,,,
Village of Mid Town II,(248) 614-4565,,Government Offices,,3250 Camden Dr,Troy,MI,48084
Wasabi Korean and Japanese Cuisine,(313) 638-1272,,"Japanese Restaurants,Korean Restaurants,Sushi Bars",http://wasabidetroit.com,15 E Kirby St,Detroit,MI,48202
Cuisine,(313) 872-5110,,"American Restaurants,Italian Restaurants,Restaurants",http://www.cuisinerestaurant.com,670 Lothrop Rd,Detroit,MI,48202
Bresser's Cross Index Directory Company,(313) 874-0570,,Publishers-Directory & Guide,,684 W Baltimore St,Detroit,MI,48202
A Center For Family Dentistry - Keith Kelley D.D.S.,(248) 918-0355,,"Dentists,Periodontists,Oral & Maxillofacial Surgery",http://drkeithkelley.com,1913 South Blvd W,Troy,MI,48098
Albert's Furniture & Appliance Center III,(586) 779-5777,,Furniture Stores,http://www.albertsfurnitureinc.com,22522 Gratiot Ave,Eastpointe,MI,48021
Mays Place,(313) 469-5079,,"Real Estate Management,Real Estate Consultants",,6440 Vinewood St,Detroit,MI,48208
Lynch Michael J,(248) 465-1044,,,,26026 Island Lake Dr,Novi,MI,48374
Edge Core Financial Group Inc,(313) 846-3343,,Financial Planning Consultants,,6556 Greenfield Rd,Dearborn,MI,48126
Edge Core Financial Group Inc,(313) 846-3343,,Financial Planning Consultants,,6556 Greenfield Rd,Dearborn,MI,48126
Affinion Loyality Group,(313) 656-2141,,Business Management,,100 Renaissance Ctr,Detroit,MI,48243
Reed Smith LLP,(213) 457-8000,,"Litigation & Tort Attorneys,Attorneys,General Practice Attorneys",https://www.reedsmith.com/en/offices,355 S Grand Ave Ste 2900,Los Angeles,CA,90071
Andrew Reed & Associates Inc,(248) 547-4350,,"Real Estate Appraisers-Commercial & Industrial,Real Estate Appraisers",http://att.net,2770 Coolidge Hwy,Berkley,MI,48072
Detroit Public Theatre,(313) 576-5111,info@detroitpublictheatre.org,Theatres,http://www.detroitpublictheatre.org,3711 Woodward Avenue,Detroit,MI,48201
Pristine Painting Inc,(410) 534-4725,,"Wallpapers & Wallcoverings-Installation,Painting Contractors,Painting Contractors-Commercial & Industrial",,617 S Chapel St,Baltimore,MD,21231
Detroit Public Theatre,(313) 576-5111,info@detroitpublictheatre.org,Theatres,http://www.detroitpublictheatre.org,3711 Woodward Avenue,Detroit,MI,48201
Road to Success Agency,(313) 427-4161,,,,3200 Greenfield Rd,Dearborn,MI,48120
"Moore, Valerie L, DO",(240) 441-5652,,Physicians & Surgeons,,3031 W Grand Blvd,Detroit,MI,48202
"Moore, Valerie L, DO",(240) 441-5652,,Physicians & Surgeons,,3031 W Grand Blvd,Detroit,MI,48202
Road to Success Agency,(313) 427-4161,,,,3200 Greenfield Rd,Dearborn,MI,48120
New Beginning Assisted Living,(313) 870-9801,robert@broofa.com,"Assisted Living Facilities,Residential Care Facilities",http://news.google.com,509 Chandler St,Detroit,MI,48202
New Beginning Assisted Living,(313) 870-9801,robert@broofa.com,"Assisted Living Facilities,Residential Care Facilities",http://news.google.com,509 Chandler St,Detroit,MI,48202
Detroit Parent Network,(313) 832-0617,,"Marriage, Family, Child & Individual Counselors,Counseling Services,Social Service Organizations",http://www.detroitparentnetwork.org,726 Lothrop Rd,Detroit,MI,48202
Detroit Parent Network,(313) 832-0617,,"Marriage, Family, Child & Individual Counselors,Counseling Services,Social Service Organizations",http://www.detroitparentnetwork.org,726 Lothrop Rd,Detroit,MI,48202
Smiley's Quick Lube & Auto Repair,(248) 355-2232,,Auto Oil & Lube,,27364 W 8 Mile Rd,Southfield,MI,48033
Packard Group,(313) 872-7826,,"Counseling Services,Adult Day Care Centers",,731 Pallister St,Detroit,MI,48202
"Mosley-William, Kimberly T",(626) 472-6000,,,,13001 Ramona Blvd,Baldwin Park,CA,91706
"A Better Tomorrow Counseling & Consultation Services, LLC",(313) 255-2650,mail@abtccs.com,"Counselors-Licensed Professional,Counseling Services,Career & Vocational Counseling",http://www.abtccs.com,25245 5 Mile Rd Ste 500,Redford,MI,48239
"A Better Tomorrow Counseling & Consultation Services, LLC",(313) 255-2650,mail@abtccs.com,"Counselors-Licensed Professional,Counseling Services,Career & Vocational Counseling",http://www.abtccs.com,25245 5 Mile Rd Ste 500,Redford,MI,48239
"Bantom Global Industries, Inc",(313) 493-0184,,Energy Conservation Products & Services,,19001 Glendale,Redford,MI,48239
"LGC Global, Inc",(313) 989-4141,,"General Contractors,Building Specialties,Professional Engineers",http://lgccorp.com,7310 Woodward Ave,Detroit,MI,48202
"LGC Global, Inc",(313) 989-4141,,"General Contractors,Building Specialties,Professional Engineers",http://lgccorp.com,7310 Woodward Ave,Detroit,MI,48202
"U.S. Energy Resources, LLC",(248) 723-6844,,"Fuel Oils,Petroleum Oils,Oils-Used & Waste",http://www.usenergyresources.net,20300 Mount Elliott St,Detroit,MI,48234
"Bantom Global Industries, Inc",(313) 493-0184,,Energy Conservation Products & Services,,19001 Glendale,Redford,MI,48239
Barat Child And Family Services - CLOSED,,,,,5250 John R St,Detroit,MI,48202
On Star Corp,(313) 568-8400,mex_icon_roll@1x.svg,Global Positioning Equipment & Systems,http://onstar.com,400 Renaissance Ctr,Detroit,MI,48243
Woodward Woodworks Alan Young Furnituremaker,(734) 218-5803,alan@woodwardwoodworks.com,Woodworking,http://woodwardwoodworks.com,114 Woodward St,Ypsilanti,MI,48197
The Green Company,(313) 769-3183,,"Janitorial Service,Industrial Cleaning,House Cleaning",http://www.thegreencompanyinc.com,7310 Woodward Ave Ste 740,Detroit,MI,48202
Neighborhood Legal Services,(313) 874-5820,johnsmith@example.com,"Legal Service Plans,Attorneys,General Practice Attorneys",http://www.nlsmichigan.org,7310 Woodward Ave,Detroit,MI,48202
E C Dittrich And Company Inc,(313) 873-8313,,,,825 Lothrop Rd,Detroit,MI,48202
E C Dittrich And Company Inc,(313) 873-8313,,,,825 Lothrop Rd,Detroit,MI,48202
New Center Liquor Party Shoppe,(313) 875-7523,,Liquor Stores,,7400 Woodward Ave,Detroit,MI,48202
MyDetroitDentist.Com / Harden Family Dentistry,(313) 871-1999,,Dentists,http://www.mydetroitdentist.com,7411 John R St,Detroit,MI,48202
MyDetroitDentist.Com / Harden Family Dentistry,(313) 871-1999,,Dentists,http://www.mydetroitdentist.com,7411 John R St,Detroit,MI,48202
Shon's Corner,(248) 223-1560,,Security Guard & Patrol Service,,25140 Lahser Rd,Southfield,MI,48033
Moon Inc New China,(734) 513-7331,,,,34710 N Livonia Cres,Livonia,MI,48154
Parks Old Style Bar-B-Que,(313) 873-7444,,"Delivery Service,Chicken Restaurants,Caterers",http://www.parksoldstylebar-b-q.com,7444 Beaubien St,Detroit,MI,48202
Lyles 16 Flavors,(248) 340-0252,,"Ice Cream & Frozen Desserts,Dessert Restaurants",,760 E Walton Blvd,Pontiac,MI,48340
Eks Services International,(313) 963-1433,info@eksservices.com,Environmental & Ecological Consultants,http://www.eksservices.com,7451 3rd St,Detroit,MI,48202
Resendes Design Group,(313) 873-3280,14370afcdc17429f9e418d5ffbd0334a@sentry.wixpress.com,Architects,http://www.resendesgroup.com,7451 3rd St,Detroit,MI,48202
Sierra Medical Group PLC,(313) 870-1560,,"Physicians & Surgeons,Physicians & Surgeons, Psychiatry,Physicians & Surgeons, Surgery-General",http://sierramedicalgroup.com,7522 John R St,Detroit,MI,48202
W-3 Construction,(313) 875-8000,,"General Contractors,Construction Estimates,Home Builders",http://www.w3group.net,7601 2nd Ave,Detroit,MI,48202
Onyx Enterprise Inc,(313) 409-9870,tbuckles@onyx-enterprise.com,,http://onyx-enterprise.com,7650 2nd Ave,Detroit,MI,48202
Onyx Enterprise Inc,(313) 409-9870,tbuckles@onyx-enterprise.com,,http://onyx-enterprise.com,7650 2nd Ave,Detroit,MI,48202
Administrative Recruiting Specialists,(248) 681-2772,,Armed Forces Recruiting,,1664 Beechcroft St,Keego Harbor,MI,48320
Coleman A Young Foundation,(313) 962-2200,info@cayf.org,"Foundations-Educational, Philanthropic, Research",http://www.cayf.org,7650 2nd Ave Ste 206,Detroit,MI,48202
Coleman A Young Foundation,(313) 962-2200,info@cayf.org,"Foundations-Educational, Philanthropic, Research",http://www.cayf.org,7650 2nd Ave Ste 206,Detroit,MI,48202
Black United Fund Of Michigan Inc,(313) 894-2200,bufofmichigan@gmail.com,Charities,http://www.bufmi.org,2187 W Grand Blvd,Detroit,MI,48208
Miller & Cohen Attorney at Law PLC,(313) 383-2422,,Attorneys,https://www.millercohen.com,6715 Park Ave,Detroit,MI,48201
North End Woodward Community Coalition,(313) 265-3069,,Arts Organizations & Information,https://mynewcc.org,7700 2nd Ave,Detroit,MI,48202
The Wellness Plan,(313) 202-8500,,Clinics,http://www.wellplan.com,7700 2nd Ave,Detroit,MI,48202
Vip Mentoring,(313) 638-1080,staff@vipmentoring.org,"Office Equipment & Supplies,Stationery Stores",https://www.vipmentoring.org,7700 2nd Ave,Detroit,MI,48202
Big Brothers Big Sisters,(313) 309-1600,Logo@2x.png,"Community Organizations,Human Services Organizations,Child Care",http://www.bbbs.org,7375 Woodward Ave,Detroit,MI,48202
Rhonda Walker Foundation,(313) 564-1420,info@rhondawalkerfoundation.org,,http://rhondawalkerfoundation.org,Po Box 251746,West Bloomfield,MI,48325
Ford Community & Performing Arts Center,(313) 943-2350,recservdesk@ci.dearborn.mi.us,"Community Centers,Art Galleries, Dealers & Consultants,Tennis Instruction",http://dearbornfordcenter.com,15801 Michigan Ave,Dearborn,MI,48126
Extended Sales Enterprise,(313) 580-1536,,"Business Coaches & Consultants,Speakers, Lectures & Seminars",http://www.extendedsalesenterprise.com,7701 Woodward Ave,Detroit,MI,48202
"Moore-Baldwin, Donyelle, MD",(313) 966-9521,,"Physicians & Surgeons,Physicians & Surgeons, Family Medicine & General Practice,Physicians & Surgeons, Surgery-General",https://dmcmedicalgroup.com/providers/donyelle-moore-baldwin-md,6001 W Outer Dr Ste 205,Detroit,MI,48235
Metropolitan United Methodist Church,(313) 875-7407,,"Methodist Churches,Churches & Places of Worship",http://metroumc.org,8000 Woodward Ave,Detroit,MI,48202
Walker-Miller Energy Service,(313) 366-8535,,"Electric Companies,Utility Companies",http://www.wmenergy.com,2990 W Grand Blvd Ste 310,Detroit,MI,48202
Walker-Miller Energy Service,(313) 366-8535,,"Electric Companies,Utility Companies",http://www.wmenergy.com,2990 W Grand Blvd Ste 310,Detroit,MI,48202
Pan African Orthodox Christian Church,(313) 875-9700,,"Churches & Places of Worship,Religious Organizations",https://www.shrinesoftheblackmadonna.org,8045 2nd Ave,Detroit,MI,48202
New Way Wireless and Repair - Fraser,(586) 265-3409,,"Cellular Telephone Service,Cellular Telephone Equipment & Supplies",http://www.newwaywirelessrepair.com,16894 15 Mile Rd,Fraser,MI,48026
New Center Super Market,(313) 875-6722,,"Grocery Stores,Liquor Stores",,8055 Woodward Ave,Detroit,MI,48202
Renee's Creative Interiors,(586) 677-4914,,Interior Designers & Decorators,,55903 Mound Rd,Shelby Township,MI,48316
Koussan Hamood PLC,(313) 784-9509,contact@kh-plc.com,,https://www.kh-plc.com,821 W Milwaukee St,Detroit,MI,48202
A Inc,(248) 391-9000,,Robotics,http://abb.com,1250 Brown Rd,Auburn Hills,MI,48326
The Turkey Grill,(313) 872-4624,,"Barbecue Grills & Supplies,Restaurants",http://www.theturkeygrill.com,8290 Woodward Ave,Detroit,MI,48202
Chami-Shamil Inc,(313) 873-3309,,,,8351 Woodward Ave,Detroit,MI,48202
Chami-Shamil Inc,(313) 873-3309,,,,8351 Woodward Ave,Detroit,MI,48202
Process Controls & Instrumentation,(313) 874-5877,info@pci-vetrix.com,"Cellular Telephone Service,Telecommunications Services",http://pci-vetrix.com,840 W Milwaukee St,Detroit,MI,48202
Process Controls & Instrumentation,(313) 874-5877,info@pci-vetrix.com,"Cellular Telephone Service,Telecommunications Services",http://pci-vetrix.com,840 W Milwaukee St,Detroit,MI,48202
Barclay Corporation,(313) 638-1149,,Real Estate Management,,845 W Milwaukee St,Detroit,MI,48202
Ocean Fish,(313) 893-7333,contact@myoceanfish.com,"Seafood Restaurants,Fish & Seafood Markets,Restaurants",https://myoceanfish.com,3732 E 8 Mile Rd,Detroit,MI,48234
People's Community Church,(313) 871-4676,,"Churches & Places of Worship,Community Churches,Religious Organizations",http://www.peoplescommunitychurchdetroit.org,8601 Woodward Ave,Detroit,MI,48202
Hill Consulting Silver,(313) 466-3260,,Business Coaches & Consultants,,81 Kercheval Ave,Grosse Pointe Farms,MI,48236
Active Learning Early Childhood Center,(248) 879-2802,,Child Care,,2601 E Square Lake Rd,Troy,MI,48085
Victor Ronald W,(313) 465-7580,,Attorneys,,660 Woodward Ave Ste 2290,Detroit,MI,48226
Secure Realty Investments,(248) 910-8826,alexandr.kazakov1@gmail.com,Real Estate Management,http://www.securerealtyllc.com,37739 Northfield Ct,Livonia,MI,48150
Little Rock Baptist Church,(313) 872-2900,14370afcdc17429f9e418d5ffbd0334a@sentry.wixpress.com,"Baptist Churches,Churches & Places of Worship",https://www.historiclittlerockbc.org,9000 Woodward Ave,Detroit,MI,48202
Aml Gas Inc,(313) 875-9431,,"Gas Companies,Gas Stations",,9101 Woodward Ave,Detroit,MI,48202
Bay At Woodward Health And Rehabilitation Center T,(313) 872-0890,info@Bay-Woodward.com,Rehabilitation Services,https://www.bay-woodward.com,9146 Woodward Ave,Detroit,MI,48202
Wolfbrown,(415) 796-3060,14370afcdc17429f9e418d5ffbd0334a@sentry.wixpress.com,,https://www.wolfbrown.com,918 W Boston Blvd,Detroit,MI,48202
Professional Property Holdings LLC,(313) 465-2165,,"Property Maintenance,Real Estate Referral & Information Service,Real Estate Management",,1659 Taylor St,Detroit,MI,48206
Byron's Flowers,(313) 868-2202,typesetit@att.net,Florists,http://byronsflowers.com,1144 Chicago Blvd,Detroit,MI,48202
Grace Harper Florist,(313) 831-1164,graceharperflorist@sbcglobal.net,Florists,http://www.graceharperflorist.com?y_source=1_mja4oti2mtitntuzlwxvy2f0aw9ulndlynnpdgu%3d,9300 Woodward Ave,Detroit,MI,48202
T E K Supply,(313) 867-7615,,"Financing Consultants,Financial Planning Consultants,Investments",http://www.teksystems.com,160 Chicago Blvd,Detroit,MI,48202
T E K Supply,(313) 867-7615,,"Financing Consultants,Financial Planning Consultants,Investments",http://www.teksystems.com,160 Chicago Blvd,Detroit,MI,48202
Kenwood Market,(313) 871-7600,,"Grocery Stores,Liquor Stores",,9400 Woodward Ave,Detroit,MI,48202
Greater Faith Assembly Outreach Ministry - CLOSED,,,,http://www.greaterfaithassembly.webs.com,1330 Crane St,Detroit,MI,48214
Blessed Sacrament Cathedral,(313) 865-6300,,"Churches & Places of Worship,Catholic Churches",http://www.manta.com/c/mml55rb/blessed-sacrament-cathedral,9844 Woodward Ave,Detroit,MI,48202
Detroit Public Schools - General Superintendent,(313) 873-7450,communications@detroitk12.org,Schools,http://detroitk12.org,3011 W Grand Blvd,Detroit,MI,48202
Transportation Riders United,(313) 963-8872,info@DetroitTransit.org,Community Organizations,http://www.detroittransit.org,500 Griswold St Ste 1650,Detroit,MI,48226
Gershonowicz Brothers,(855) 725-3628,,,https://rebuild.group,2921 E Grand Blvd,Detroit,MI,48202
Big Brothers Big Sisters,(313) 309-0500,Logo@2x.png,"Community Organizations,Social Service Organizations,Human Services Organizations",http://www.bbbs.org,7700 2nd Ave,Detroit,MI,48202
